EUTELSAT 7A             
1 28187U 04008A   25197.67321560  .00000108  00000+0  00000+0 0  9999
2 28187   4.9735  76.0414 0001536  66.1101 255.7276  1.00271663 77989
EUTELSAT 174A           
1 28924U 05052A   25197.87807368  .00000015  00000+0  00000+0 0  9992
2 28924   3.3656  80.7340 0006086  37.7918 306.4837  1.00271060 48962
EUTELSAT HOTBIRD 13E    
1 28946U 06007B   25197.91767759 -.00000126  00000+0  00000+0 0  9995
2 28946   1.2021  89.7006 0006016 185.6847   3.9248  0.98117754 70958
EUTELSAT HOTBIRD 13B    
1 29270U 06032A   25197.92149094  .00000163  00000+0  00000+0 0  9991
2 29270   0.7917  86.0136 0003691  32.3743 181.4175  1.00271534 43941
EUTELSAT HOTBIRD 13C    
1 33459U 08065A   25197.41272471 -.00000094  00000+0  00000+0 0  9997
2 33459   2.0830  83.2357 0003253  38.3602 308.9519  1.00270613 43970
EUTELSAT 36B            
1 36101U 09065A   25197.92495762  .00000119  00000+0  00000+0 0  9998
2 36101   0.0555 337.2227 0005546 141.4565 199.7956  1.00272548 57344
EUTELSAT KA-SAT 9A      
1 37258U 10069A   25197.90114251  .00000069  00000+0  00000+0 0  9991
2 37258   0.0615 303.5366 0003784 190.5556 134.2786  1.00272184 40648
EUTELSAT 7 WEST A       
1 37816U 11051A   25197.91352049 -.00000053  00000+0  00000+0 0  9997
2 37816   0.0651 337.5288 0004709 156.7954 122.2115  1.00270742 50532
